TEVEL2-7                
1 63238U 25052AE  26068.66113295  .00019244  00000+0  69668-3 0  9998
2 63238  97.4054 324.3041 0008105 124.6830 235.5175 15.28414096 54803
STARLINK-34640          
1 65092U 25167Q   26068.20867250 -.00021157  00000+0 -70455-3 0  9996
2 65092  53.1618  29.0744 0001442  60.4833 299.6311 15.30184140 33407
